[{"OBJECT_NAME":"KX-09","OBJECT_ID":"2019-058B","EPOCH":"2026-03-09T23:04:56.318016","MEAN_MOTION":14.96388453,"ECCENTRICITY":0.00095225,"INCLINATION":97.7825,"RA_OF_ASC_NODE":82.8152,"ARG_OF_PERICENTER":321.3855,"MEAN_ANOMALY":38.6684,"EPHEMERIS_TYPE":0,"CLASSIFICATION_TYPE":"U","NORAD_CAT_ID":44520,"ELEMENT_SET_NO":999,"REV_AT_EPOCH":35519,"BSTAR":0.00022385026,"MEAN_MOTION_DOT":2.479e-5,"MEAN_MOTION_DDOT":0},{"OBJECT_NAME":"STARLINK-35881","OBJECT_ID":"2025-280K","EPOCH":"2026-03-09T23:15:17.063136","MEAN_MOTION":14.9839933,"ECCENTRICITY":0.00016193,"INCLINATION":70.0042,"RA_OF_ASC_NODE":333.92,"ARG_OF_PERICENTER":218.1502,"MEAN_ANOMALY":141.9542,"EPHEMERIS_TYPE":0,"CLASSIFICATION_TYPE":"U","NORAD_CAT_ID":66830,"ELEMENT_SET_NO":999,"REV_AT_EPOCH":1611,"BSTAR":0.0034462676,"MEAN_MOTION_DOT":0.00041343,"MEAN_MOTION_DDOT":0}]
